[{"OBJECT_NAME":"STARLINK-35021","OBJECT_ID":"2025-184K","EPOCH":"2026-03-09T16:21:06.526656","MEAN_MOTION":15.05632974,"ECCENTRICITY":0.00010913,"INCLINATION":97.6031,"RA_OF_ASC_NODE":122.7142,"ARG_OF_PERICENTER":123.6007,"MEAN_ANOMALY":236.5324,"EPHEMERIS_TYPE":0,"CLASSIFICATION_TYPE":"U","NORAD_CAT_ID":65282,"ELEMENT_SET_NO":999,"REV_AT_EPOCH":3125,"BSTAR":0.00049768194,"MEAN_MOTION_DOT":7.124e-5,"MEAN_MOTION_DDOT":0},{"OBJECT_NAME":"UNKNOWN","OBJECT_ID":"","EPOCH":"2026-03-08T12:59:39.172704","MEAN_MOTION":15.0131728,"ECCENTRICITY":0.00204305,"INCLINATION":86.3534,"RA_OF_ASC_NODE":358.469,"ARG_OF_PERICENTER":121.5673,"MEAN_ANOMALY":238.7558,"EPHEMERIS_TYPE":0,"CLASSIFICATION_TYPE":"U","NORAD_CAT_ID":270086,"ELEMENT_SET_NO":999,"REV_AT_EPOCH":9441,"BSTAR":0.0053525659,"MEAN_MOTION_DOT":0.00069778,"MEAN_MOTION_DDOT":0}]
